[{"OBJECT_NAME":"SVOM","OBJECT_ID":"2024-116B","EPOCH":"2026-03-09T23:40:42.296160","MEAN_MOTION":14.83280449,"ECCENTRICITY":0.00053838,"INCLINATION":28.9973,"RA_OF_ASC_NODE":24.3307,"ARG_OF_PERICENTER":105.8209,"MEAN_ANOMALY":254.2978,"EPHEMERIS_TYPE":0,"CLASSIFICATION_TYPE":"U","NORAD_CAT_ID":60089,"ELEMENT_SET_NO":999,"REV_AT_EPOCH":9285,"BSTAR":0.00025701068,"MEAN_MOTION_DOT":2.275e-5,"MEAN_MOTION_DDOT":0},{"OBJECT_NAME":"FTV 3502","OBJECT_ID":"1962-039A","EPOCH":"2026-03-09T21:41:26.705184","MEAN_MOTION":14.91961609,"ECCENTRICITY":0.00806549,"INCLINATION":98.4622,"RA_OF_ASC_NODE":145.9901,"ARG_OF_PERICENTER":91.4356,"MEAN_ANOMALY":269.6102,"EPHEMERIS_TYPE":0,"CLASSIFICATION_TYPE":"U","NORAD_CAT_ID":369,"ELEMENT_SET_NO":999,"REV_AT_EPOCH":40080,"BSTAR":0.00025514942,"MEAN_MOTION_DOT":2.681e-5,"MEAN_MOTION_DDOT":0}]
